{
  "type": "FeatureCollection",
  "features": [
    {
      "type": "Feature",
      "properties": {
        "norad_id": 46435,
        "name": "IRIDIUM 33 DEB",
        "group": "iridium-33-debris",
        "lat": -11.331665822678394,
        "lon": 16.097150152144565,
        "alt_km": 801.3346275148197,
        "timestamp": "2025-12-09T11:33:55.186717+00:00",
        "meta_object_name": "IRIDIUM 33 DEB",
        "meta_object_id": "1997-051ABN",
        "meta_epoch": "2025-12-08T08:41:01.195296",
        "meta_mean_motion": 14.31888327,
        "meta_eccentricity": 0.02102864,
        "meta_inclination": 86.2835,
        "meta_ra_of_asc_node": 195.8323,
        "meta_arg_of_pericenter": 290.5462,
        "meta_mean_anomaly": 252.8586,
        "meta_ephemeris_type": 0,
        "meta_classification_type": "U",
        "meta_norad_cat_id": 46435,
        "meta_element_set_no": 999,
        "meta_rev_at_epoch": 7853,
        "meta_bstar": 0.0090831914,
        "meta_mean_motion_dot": 0.00031152,
        "meta_mean_motion_ddot": 0,
        "tle_line1": "1 46435U 97051ABN 25342.36181939  .00031152  00000+0  90832-2 0  9995",
        "tle_line2": "2 46435  86.2835 195.8323 0210286 290.5462 252.8586 14.31888327 78538"
      },
      "geometry": {
        "type": "Point",
        "coordinates": [
          16.097150152144565,
          -11.331665822678394
        ]
      }
    },
    {
      "type": "Feature",
      "properties": {
        "norad_id": 46734,
        "name": "IRIDIUM 33 DEB",
        "group": "iridium-33-debris",
        "lat": -85.9917553468719,
        "lon": -64.52158938417382,
        "alt_km": 752.6694518533768,
        "timestamp": "2025-12-09T11:33:55.186733+00:00",
        "meta_object_name": "IRIDIUM 33 DEB",
        "meta_object_id": "1997-051ABR",
        "meta_epoch": "2025-12-03T20:12:35.443296",
        "meta_mean_motion": 14.41795233,
        "meta_eccentricity": 0.00394426,
        "meta_inclination": 86.2642,
        "meta_ra_of_asc_node": 6.7702,
        "meta_arg_of_pericenter": 5.4679,
        "meta_mean_anomaly": 171.2392,
        "meta_ephemeris_type": 0,
        "meta_classification_type": "U",
        "meta_norad_cat_id": 46734,
        "meta_element_set_no": 999,
        "meta_rev_at_epoch": 62882,
        "meta_bstar": 0.0014594249,
        "meta_mean_motion_dot": 4.83e-05,
        "meta_mean_motion_ddot": 0,
        "tle_line1": "1 46734U 97051ABR 25337.84207689  .00004830  00000+0  14594-2 0  9999",
        "tle_line2": "2 46734  86.2642   6.7702 0039442   5.4679 171.2392 14.41795233628829"
      },
      "geometry": {
        "type": "Point",
        "coordinates": [
          -64.52158938417382,
          -85.9917553468719
        ]
      }
    },
    {
      "type": "Feature",
      "properties": {
        "norad_id": 46965,
        "name": "IRIDIUM 33 DEB",
        "group": "iridium-33-debris",
        "lat": -13.919453307564282,
        "lon": 163.05292609909333,
        "alt_km": 708.7158939277324,
        "timestamp": "2025-12-09T11:33:55.186753+00:00",
        "meta_object_name": "IRIDIUM 33 DEB",
        "meta_object_id": "1997-051ABX",
        "meta_epoch": "2025-12-06T23:36:16.318080",
        "meta_mean_motion": 14.60228629,
        "meta_eccentricity": 0.00188578,
        "meta_inclination": 86.335,
        "meta_ra_of_asc_node": 343.2503,
        "meta_arg_of_pericenter": 353.5175,
        "meta_mean_anomaly": 35.294,
        "meta_ephemeris_type": 0,
        "meta_classification_type": "U",
        "meta_norad_cat_id": 46965,
        "meta_element_set_no": 999,
        "meta_rev_at_epoch": 62184,
        "meta_bstar": 0.0013461013,
        "meta_mean_motion_dot": 6.528e-05,
        "meta_mean_motion_ddot": 0,
        "tle_line1": "1 46965U 97051ABX 25340.98352220  .00006528  00000+0  13461-2 0  9994",
        "tle_line2": "2 46965  86.3350 343.2503 0018857 353.5175  35.2940 14.60228629621849"
      },
      "geometry": {
        "type": "Point",
        "coordinates": [
          163.05292609909333,
          -13.919453307564282
        ]
      }
    },
    {
      "type": "Feature",
      "properties": {
        "norad_id": 46971,
        "name": "IRIDIUM 33 DEB",
        "group": "iridium-33-debris",
        "lat": -12.203254383664042,
        "lon": 155.44201658341217,
        "alt_km": 582.8001404725919,
        "timestamp": "2025-12-09T11:33:55.186765+00:00",
        "meta_object_name": "IRIDIUM 33 DEB",
        "meta_object_id": "1997-051ACD",
        "meta_epoch": "2025-11-30T18:57:44.502624",
        "meta_mean_motion": 14.96904917,
        "meta_eccentricity": 0.00065248,
        "meta_inclination": 86.3392,
        "meta_ra_of_asc_node": 338.7285,
        "meta_arg_of_pericenter": 8.9727,
        "meta_mean_anomaly": 165.6369,
        "meta_ephemeris_type": 0,
        "meta_classification_type": "U",
        "meta_norad_cat_id": 46971,
        "meta_element_set_no": 999,
        "meta_rev_at_epoch": 64051,
        "meta_bstar": 0.0032009998,
        "meta_mean_motion_dot": 0.00036919,
        "meta_mean_motion_ddot": 0,
        "tle_line1": "1 46971U 97051ACD 25334.79009841  .00036919  00000+0  32010-2 0  9999",
        "tle_line2": "2 46971  86.3392 338.7285 0006524   8.9727 165.6369 14.96904917640518"
      },
      "geometry": {
        "type": "Point",
        "coordinates": [
          155.44201658341217,
          -12.203254383664042
        ]
      }
    },
    {
      "type": "Feature",
      "properties": {
        "norad_id": 46974,
        "name": "IRIDIUM 33 DEB",
        "group": "iridium-33-debris",
        "lat": 83.37255956091073,
        "lon": -107.15047716243954,
        "alt_km": 750.827095291188,
        "timestamp": "2025-12-09T11:33:55.186777+00:00",
        "meta_object_name": "IRIDIUM 33 DEB",
        "meta_object_id": "1997-051ACG",
        "meta_epoch": "2025-12-08T01:51:35.109216",
        "meta_mean_motion": 14.44143429,
        "meta_eccentricity": 0.0095872,
        "meta_inclination": 86.2996,
        "meta_ra_of_asc_node": 107.3101,
        "meta_arg_of_pericenter": 202.1724,
        "meta_mean_anomaly": 157.532,
        "meta_ephemeris_type": 0,
        "meta_classification_type": "U",
        "meta_norad_cat_id": 46974,
        "meta_element_set_no": 999,
        "meta_rev_at_epoch": 57441,
        "meta_bstar": 0.006255,
        "meta_mean_motion_dot": 0.00022746,
        "meta_mean_motion_ddot": 0,
        "tle_line1": "1 46974U 97051ACG 25342.07748969  .00022746  00000+0  62550-2 0  9998",
        "tle_line2": "2 46974  86.2996 107.3101 0095872 202.1724 157.5320 14.44143429574414"
      },
      "geometry": {
        "type": "Point",
        "coordinates": [
          -107.15047716243954,
          83.37255956091073
        ]
      }
    },
    {
      "type": "Feature",
      "properties": {
        "norad_id": 46979,
        "name": "IRIDIUM 33 DEB",
        "group": "iridium-33-debris",
        "lat": -61.1896031664604,
        "lon": 43.37227283990445,
        "alt_km": 599.6285455225934,
        "timestamp": "2025-12-09T11:33:55.186788+00:00",
        "meta_object_name": "IRIDIUM 33 DEB",
        "meta_object_id": "1997-051ACM",
        "meta_epoch": "2025-12-08T11:38:51.411264",
        "meta_mean_motion": 14.88966671,
        "meta_eccentricity": 0.00280118,
        "meta_inclination": 86.3345,
        "meta_ra_of_asc_node": 50.5282,
        "meta_arg_of_pericenter": 237.8713,
        "meta_mean_anomaly": 121.9794,
        "meta_ephemeris_type": 0,
        "meta_classification_type": "U",
        "meta_norad_cat_id": 46979,
        "meta_element_set_no": 999,
        "meta_rev_at_epoch": 35365,
        "meta_bstar": 0.0048738532,
        "meta_mean_motion_dot": 0.00046401,
        "meta_mean_motion_ddot": 0,
        "tle_line1": "1 46979U 97051ACM 25342.48531726  .00046401  00000+0  48739-2 0  9996",
        "tle_line2": "2 46979  86.3345  50.5282 0028011 237.8713 121.9794 14.88966671353652"
      },
      "geometry": {
        "type": "Point",
        "coordinates": [
          43.37227283990445,
          -61.1896031664604
        ]
      }
    }
  ]
}